[{"OBJECT_NAME":"COSMO-SKYMED 4","OBJECT_ID":"2010-060A","EPOCH":"2026-03-10T00:01:02.517312","MEAN_MOTION":14.82164751,"ECCENTRICITY":0.00013936,"INCLINATION":97.8865,"RA_OF_ASC_NODE":254.0323,"ARG_OF_PERICENTER":85.3865,"MEAN_ANOMALY":274.7507,"EPHEMERIS_TYPE":0,"CLASSIFICATION_TYPE":"U","NORAD_CAT_ID":37216,"ELEMENT_SET_NO":999,"REV_AT_EPOCH":82987,"BSTAR":0.00016215676,"MEAN_MOTION_DOT":1.239e-5,"MEAN_MOTION_DDOT":0},{"OBJECT_NAME":"GEESAT-5 08","OBJECT_ID":"2025-201H","EPOCH":"2026-03-09T15:40:14.033280","MEAN_MOTION":14.82473917,"ECCENTRICITY":0.00022548,"INCLINATION":49.9778,"RA_OF_ASC_NODE":136.434,"ARG_OF_PERICENTER":280.4345,"MEAN_ANOMALY":79.6338,"EPHEMERIS_TYPE":0,"CLASSIFICATION_TYPE":"U","NORAD_CAT_ID":65557,"ELEMENT_SET_NO":999,"REV_AT_EPOCH":2708,"BSTAR":0.00033377035,"MEAN_MOTION_DOT":2.484e-5,"MEAN_MOTION_DDOT":0}]
